CSS (TIANHE)            
1 48274U 21035A   24149.85636153  .00020239  00000+0  19811-3 0  9991
2 48274  41.4666 200.9673 0002373 108.6025 251.5073 15.65630801176077
